{
  "norad_id": 65086,
  "name": "STARLINK-34822",
  "history": [
    {
      "epoch": "2026-03-28T21:14:51.508032Z",
      "apogee_km": 476.105694813491,
      "perigee_km": 474.27462286319314,
      "latitude_deg": -2.7682592400617507e-05,
      "longitude_deg": 152.84951704018385,
      "height_km": 475.92631236405714,
      "semi_major_axis_km": 6853.327158838342,
      "eccentricity": 0.00013359,
      "inclination_deg": 53.1591,
      "raan_deg": 297.8635,
      "arg_perigee_deg": 79.8225,
      "mean_anomaly_deg": 280.2926,
      "mean_motion_rev_day": 15.30208343
    }
  ]
}