{"fetched_at":"2026-03-29T16:36:15Z","count":15609,"tles":[{"name":"STARLINK-34822","line1":"1 65086U 25167J   26087.88531838  .00012681  00000+0  43943-3 0  9996","line2":"2 65086  53.1591 297.8635 0001335  79.8225 280.2926 15.30208343 36418","category":"Starlink"}]}